{"type": "FeatureCollection", "features": [ {"type": "Feature", "properties": {"norad_id": 41836, "name": "HIMAWARI-9", "group": "weather", "lat": -0.03263188578190597, "lon": -46.80926932713121, "alt_km": 35782.234142778754, "timestamp": "2025-12-16T05:49:08.866161+00:00", "meta": {"OBJECT_NAME": "HIMAWARI-9", "OBJECT_ID": "2016-064A", "EPOCH": "2025-12-14T22:38:53.164032", "MEAN_MOTION": 1.00272988, "ECCENTRICITY": 0.00010766, "INCLINATION": 0.0419, "RA_OF_ASC_NODE": 96.9426, "ARG_OF_PERICENTER": 179.7054, "MEAN_ANOMALY": 287.6965, "EPHEMERIS_TYPE": 0, "CLASSIFICATION_TYPE": "U", "NORAD_CAT_ID": 41836, "ELEMENT_SET_NO": 999, "REV_AT_EPOCH": 3336, "BSTAR": 0, "MEAN_MOTION_DOT": -2.54e-06, "MEAN_MOTION_DDOT": 0}, "tle": {"line1": "1 41836U 16064A   25348.94367088 -.00000254  00000+0  00000+0 0  9996", "line2": "2 41836   0.0419  96.9426 0001076 179.7054 287.6965  1.00272988 33366"}}, "geometry": {"type": "Point", "coordinates": [-46.80926932713121, -0.03263188578190597]}}, {"type": "Feature", "properties": {"norad_id": 41866, "name": "GOES 16", "group": "weather", "lat": -0.010865299279737792, "lon": 67.74445437099071, "alt_km": 35798.65113828613, "timestamp": "2025-12-16T05:49:08.866173+00:00", "meta": {"OBJECT_NAME": "GOES 16", "OBJECT_ID": "2016-071A", "EPOCH": "2025-12-15T21:27:04.890240", "MEAN_MOTION": 1.00271781, "ECCENTRICITY": 0.00030853, "INCLINATION": 0.071, "RA_OF_ASC_NODE": 103.1018, "ARG_OF_PERICENTER": 160.6869, "MEAN_ANOMALY": 38.0973, "EPHEMERIS_TYPE": 0, "CLASSIFICATION_TYPE": "U", "NORAD_CAT_ID": 41866, "ELEMENT_SET_NO": 999, "REV_AT_EPOCH": 3326, "BSTAR": 0, "MEAN_MOTION_DOT": -6.8e-07, "MEAN_MOTION_DDOT": 0}, "tle": {"line1": "1 41866U 16071A   25349.89380660 -.00000068  00000+0  00000+0 0  9996", "line2": "2 41866   0.0710 103.1018 0003085 160.6869  38.0973  1.00271781 33262"}}, "geometry": {"type": "Point", "coordinates": [67.74445437099071, -0.010865299279737792]}}, {"type": "Feature", "properties": {"norad_id": 41882, "name": "FENGYUN 4A", "group": "weather", "lat": -1.053474583719754, "lon": -63.75253663093585, "alt_km": 35780.288109475456, "timestamp": "2025-12-16T05:49:08.866185+00:00", "meta": {"OBJECT_NAME": "FENGYUN 4A", "OBJECT_ID": "2016-077A", "EPOCH": "2025-12-15T22:32:13.652160", "MEAN_MOTION": 1.00268369, "ECCENTRICITY": 0.00045904, "INCLINATION": 1.8574, "RA_OF_ASC_NODE": 82.3617, "ARG_OF_PERICENTER": 144.5742, "MEAN_ANOMALY": 319.7593, "EPHEMERIS_TYPE": 0, "CLASSIFICATION_TYPE": "U", "NORAD_CAT_ID": 41882, "ELEMENT_SET_NO": 999, "REV_AT_EPOCH": 3309, "BSTAR": 0, "MEAN_MOTION_DOT": -3.35e-06, "MEAN_MOTION_DDOT": 0}, "tle": {"line1": "1 41882U 16077A   25349.93904690 -.00000335  00000+0  00000+0 0  9997", "line2": "2 41882   1.8574  82.3617 0004590 144.5742 319.7593  1.00268369 33099"}}, "geometry": {"type": "Point", "coordinates": [-63.75253663093585, -1.053474583719754]}}, {"type": "Feature", "properties": {"norad_id": 41884, "name": "CYGFM05", "group": "weather", "lat": 32.222839128572446, "lon": 139.81195730531357, "alt_km": 418.9613175369959, "timestamp": "2025-12-16T05:49:08.866196+00:00", "meta": {"OBJECT_NAME": "CYGFM05", "OBJECT_ID": "2016-078A", "EPOCH": "2025-12-15T12:18:41.333760", "MEAN_MOTION": 15.47744098, "ECCENTRICITY": 0.00104141, "INCLINATION": 34.9606, "RA_OF_ASC_NODE": 29.0146, "ARG_OF_PERICENTER": 208.5856, "MEAN_ANOMALY": 151.4296, "EPHEMERIS_TYPE": 0, "CLASSIFICATION_TYPE": "U", "NORAD_CAT_ID": 41884, "ELEMENT_SET_NO": 999, "REV_AT_EPOCH": 50019, "BSTAR": 0.00028155696, "MEAN_MOTION_DOT": 0.00015046, "MEAN_MOTION_DDOT": 0}, "tle": {"line1": "1 41884U 16078A   25349.51297840  .00015046  00000+0  28156-3 0  9996", "line2": "2 41884  34.9606  29.0146 0010414 208.5856 151.4296 15.47744098500193"}}, "geometry": {"type": "Point", "coordinates": [139.81195730531357, 32.222839128572446]}}, {"type": "Feature", "properties": {"norad_id": 41885, "name": "CYGFM04", "group": "weather", "lat": 14.238638529308867, "lon": 20.24124613551457, "alt_km": 417.4191427390451, "timestamp": "2025-12-16T05:49:08.866207+00:00", "meta": {"OBJECT_NAME": "CYGFM04", "OBJECT_ID": "2016-078B", "EPOCH": "2025-12-15T11:09:59.207040", "MEAN_MOTION": 15.50479719, "ECCENTRICITY": 0.0009653, "INCLINATION": 34.9358, "RA_OF_ASC_NODE": 4.0243, "ARG_OF_PERICENTER": 233.842, "MEAN_ANOMALY": 126.1409, "EPHEMERIS_TYPE": 0, "CLASSIFICATION_TYPE": "U", "NORAD_CAT_ID": 41885, "ELEMENT_SET_NO": 999, "REV_AT_EPOCH": 50036, "BSTAR": 0.00028304847, "MEAN_MOTION_DOT": 0.00016663, "MEAN_MOTION_DDOT": 0}, "tle": {"line1": "1 41885U 16078B   25349.46526860  .00016663  00000+0  28305-3 0  9990", "line2": "2 41885  34.9358   4.0243 0009653 233.8420 126.1409 15.50479719500363"}}, "geometry": {"type": "Point", "coordinates": [20.24124613551457, 14.238638529308867]}}, {"type": "Feature", "properties": {"norad_id": 41886, "name": "CYGFM02", "group": "weather", "lat": 28.326642816750592, "lon": 47.73607355676409, "alt_km": 413.5089536146679, "timestamp": "2025-12-16T05:49:08.866217+00:00", "meta": {"OBJECT_NAME": "CYGFM02", "OBJECT_ID": "2016-078C", "EPOCH": "2025-12-15T17:13:39.609984", "MEAN_MOTION": 15.51876336, "ECCENTRICITY": 0.00114029, "INCLINATION": 34.9446, "RA_OF_ASC_NODE": 0.6542, "ARG_OF_PERICENTER": 235.8895, "MEAN_ANOMALY": 124.0747, "EPHEMERIS_TYPE": 0, "CLASSIFICATION_TYPE": "U", "NORAD_CAT_ID": 41886, "ELEMENT_SET_NO": 999, "REV_AT_EPOCH": 50053, "BSTAR": 0.00029878781, "MEAN_MOTION_DOT": 0.00018515, "MEAN_MOTION_DDOT": 0}, "tle": {"line1": "1 41886U 16078C   25349.71781956  .00018515  00000+0  29879-3 0  9993", "line2": "2 41886  34.9446   0.6542 0011402 235.8895 124.0747 15.51876336500537"}}, "geometry": {"type": "Point", "coordinates": [47.73607355676409, 28.326642816750592]}}, {"type": "Feature", "properties": {"norad_id": 41887, "name": "CYGFM01", "group": "weather", "lat": 9.587683570594262, "lon": -167.42638697672092, "alt_km": 414.2130305264782, "timestamp": "2025-12-16T05:49:08.866228+00:00", "meta": {"OBJECT_NAME": "CYGFM01", "OBJECT_ID": "2016-078D", "EPOCH": "2025-12-15T19:50:00.921120", "MEAN_MOTION": 15.48337947, "ECCENTRICITY": 0.00100727, "INCLINATION": 34.9437, "RA_OF_ASC_NODE": 29.2944, "ARG_OF_PERICENTER": 203.5246, "MEAN_ANOMALY": 156.5015, "EPHEMERIS_TYPE": 0, "CLASSIFICATION_TYPE": "U", "NORAD_CAT_ID": 41887, "ELEMENT_SET_NO": 999, "REV_AT_EPOCH": 50018, "BSTAR": 0.00028934447, "MEAN_MOTION_DOT": 0.0001579, "MEAN_MOTION_DDOT": 0}, "tle": {"line1": "1 41887U 16078D   25349.82639955  .00015790  00000+0  28934-3 0  9990", "line2": "2 41887  34.9437  29.2944 0010072 203.5246 156.5015 15.48337947500180"}}, "geometry": {"type": "Point", "coordinates": [-167.42638697672092, 9.587683570594262]}}, {"type": "Feature", "properties": {"norad_id": 41888, "name": "CYGFM08", "group": "weather", "lat": -24.690160166641856, "lon": -129.30116872936813, "alt_km": 411.444586224864, "timestamp": "2025-12-16T05:49:08.866238+00:00", "meta": {"OBJECT_NAME": "CYGFM08", "OBJECT_ID": "2016-078E", "EPOCH": "2025-12-15T18:01:16.838976", "MEAN_MOTION": 15.49547701, "ECCENTRICITY": 0.00118083, "INCLINATION": 34.9467, "RA_OF_ASC_NODE": 12.7455, "ARG_OF_PERICENTER": 225.6417, "MEAN_ANOMALY": 134.3338, "EPHEMERIS_TYPE": 0, "CLASSIFICATION_TYPE": "U", "NORAD_CAT_ID": 41888, "ELEMENT_SET_NO": 999, "REV_AT_EPOCH": 50040, "BSTAR": 0.00028629208, "MEAN_MOTION_DOT": 0.00016319, "MEAN_MOTION_DDOT": 0}, "tle": {"line1": "1 41888U 16078E   25349.75088934  .00016319  00000+0  28629-3 0  9997", "line2": "2 41888  34.9467  12.7455 0011808 225.6417 134.3338 15.49547701500400"}}, "geometry": {"type": "Point", "coordinates": [-129.30116872936813, -24.690160166641856]}}, {"type": "Feature", "properties": {"norad_id": 41890, "name": "CYGFM07", "group": "weather", "lat": -22.48611361210216, "lon": -145.16532193232604, "alt_km": 411.2938249347926, "timestamp": "2025-12-16T05:49:08.866248+00:00", "meta": {"OBJECT_NAME": "CYGFM07", "OBJECT_ID": "2016-078G", "EPOCH": "2025-12-15T18:02:48.628608", "MEAN_MOTION": 15.50132349, "ECCENTRICITY": 0.00101327, "INCLINATION": 34.9485, "RA_OF_ASC_NODE": 1.7018, "ARG_OF_PERICENTER": 241.5134, "MEAN_ANOMALY": 118.4568, "EPHEMERIS_TYPE": 0, "CLASSIFICATION_TYPE": "U", "NORAD_CAT_ID": 41890, "ELEMENT_SET_NO": 999, "REV_AT_EPOCH": 50042, "BSTAR": 0.00029703404, "MEAN_MOTION_DOT": 0.00017277, "MEAN_MOTION_DDOT": 0}, "tle": {"line1": "1 41890U 16078G   25349.75195172  .00017277  00000+0  29703-3 0  9991", "line2": "2 41890  34.9485   1.7018 0010132 241.5134 118.4568 15.50132349500428"}}, "geometry": {"type": "Point", "coordinates": [-145.16532193232604, -22.48611361210216]}}, {"type": "Feature", "properties": {"norad_id": 41891, "name": "CYGFM03", "group": "weather", "lat": 28.07997874278819, "lon": 50.22938611071588, "alt_km": 417.7067320339884, "timestamp": "2025-12-16T05:49:08.866259+00:00", "meta": {"OBJECT_NAME": "CYGFM03", "OBJECT_ID": "2016-078H", "EPOCH": "2025-12-15T11:01:57.262656", "MEAN_MOTION": 15.50020287, "ECCENTRICITY": 0.00095309, "INCLINATION": 34.9439, "RA_OF_ASC_NODE": 5.539, "ARG_OF_PERICENTER": 227.0322, "MEAN_ANOMALY": 132.9601, "EPHEMERIS_TYPE": 0, "CLASSIFICATION_TYPE": "U", "NORAD_CAT_ID": 41891, "ELEMENT_SET_NO": 999, "REV_AT_EPOCH": 50035, "BSTAR": 0.00029678263, "MEAN_MOTION_DOT": 0.0001719, "MEAN_MOTION_DDOT": 0}, "tle": {"line1": "1 41891U 16078H   25349.45969054  .00017190  00000+0  29678-3 0  9992", "line2": "2 41891  34.9439   5.5390 0009530 227.0322 132.9601 15.50020287500359"}}, "geometry": {"type": "Point", "coordinates": [50.22938611071588, 28.07997874278819]}}]}